YUBILEINY (RS30)        
1 32953U 08025A   26147.97895068 -.00000053  00000+0 -45374-3 0  9994
2 32953  82.5061   8.0123 0019725 358.6434   1.4589 12.43178050817180
KKS-1 (KISEKI)          
1 33499U 09002H   26147.88144066  .00001498  00000+0  19089-3 0  9997
2 33499  98.1196  70.0023 0008040   7.2218 352.9109 14.83062093933187
SWISSCUBE               
1 35932U 09051B   26147.71156999  .00001095  00000+0  22613-3 0  9995
2 35932  98.4052  55.2425 0005455 280.7529  79.3058 14.62435376886169
BEESAT-1                
1 35933U 09051C   26147.71039745  .00000921  00000+0  19490-3 0  9991
2 35933  98.3980  54.9194 0004103 300.5290  59.5506 14.61681361886190
ITUPSAT1                
1 35935U 09051E   26147.68338141  .00000844  00000+0  18440-3 0  9999
2 35935  98.4065  54.1056 0006474 310.3978  49.6656 14.60404610885746
XIWANG-1 (HOPE-1)       
1 36122U 09072B   26147.95211794 -.00000384  00000+0 -89005-3 0  9991
2 36122 100.4009 102.1085 0006898 282.4107  77.6233 13.16437119790349
O/OREOS (USA 219)       
1 37224U 10062C   26147.36791886  .00002440  00000+0  23644-3 0  9996
2 37224  71.9682 127.4942 0012465 108.9243 251.3279 14.93639668113534
JUGNU                   
1 37839U 11058B   26147.97323084  .00000442  00000+0  90899-4 0  9999
2 37839  19.9612  71.2279 0018548 212.7006 227.7797 14.13770159756166
SRMSAT                  
1 37841U 11058D   26147.81173669  .00000392  00000+0  68880-4 0  9996
2 37841  19.9701 182.8000 0011724 341.0129 184.6826 14.11570726754933
STRAND-1                
1 39090U 13009E   26147.93523341  .00000312  00000+0  11945-3 0  9992
2 39090  98.3917 328.6689 0007479 295.2765  64.7646 14.37149561694154
ZACUBE-1 (TSHEPISOSAT)  
1 39417U 13066B   26147.87649053  .00005483  00000+0  42697-3 0  9992
2 39417  97.8103 110.1029 0040181 319.7958  40.0295 15.01016981677680
GOMX-1                  
1 39430U 13066Q   26147.82532140  .00002526  00000+0  38313-3 0  9995
2 39430  97.6501 349.5733 0129612 142.3466 218.6902 14.69366762666927
CUBEBUG-2 (LO-74)       
1 39440U 13066AA  26147.76517999  .00004082  00000+0  37950-3 0  9999
2 39440  97.8895  96.6616 0059470  94.9275 265.8737 14.93574326673944
FUNCUBE-1 (AO-73)       
1 39444U 13066AE  26147.90285400  .00008223  00000+0  51442-3 0  9991
2 39444  97.8262 118.9306 0034349 273.0624  86.6674 15.09196686676608
UWE-3                   
1 39446U 13066AG  26147.82823467  .00006417  00000+0  55116-3 0  9990
2 39446  97.8689 103.7691 0050133  29.7598 330.6458 14.96828374674530
UNISAT-6                
1 40012U 14033C   26147.89485603  .00004122  00000+0  44511-3 0  9997
2 40012  97.7849 300.9692 0046246 134.3353 226.1669 14.88108851643140
DUCHIFAT-1              
1 40021U 14033M   26147.59248730  .00099012  00000+0  11984-2 0  9991
2 40021  98.0490 203.9281 0005836 152.8414 207.3147 15.60329437652536
QB50P1                  
1 40025U 14033R   26147.78284340  .00010303  00000+0  51137-3 0  9994
2 40025  98.0966 157.5034 0007131 300.9619  59.0911 15.17894763649933
LILACSAT-2              
1 40908U 15049K   26147.95072120  .00022032  00000+0  38464-3 0  9992
2 40908  97.4672 184.0317 0005906 342.0411  18.0631 15.50688401592617
FOX-1A (AO-85)          
1 40967U 15058D   26147.89403565  .00003900  00000+0  35151-3 0  9994
2 40967  64.7766 342.0437 0129536  64.5615 296.8836 14.90839592110543
CAS-2T & KS-1Q          
1 41847U 16066G   26147.80792535  .00001558  00000+0  22730-3 0  9997
2 41847  98.3823 223.7759 0341846 191.2088 168.1351 14.44620815501858
RADFXSAT (FOX-1B)       
1 43017U 17073E   26147.56758640  .00012179  00000+0  53101-3 0  9996
2 43017  97.4743  15.2084 0152866  40.3932 320.8531 15.12294994462279
DIWATA-2B               
1 43678U 18084H   26147.96279400  .00003067  00000+0  24939-3 0  9991
2 43678  98.1141 343.2991 0011647 239.0171 120.9908 15.00341978413181
ES'HAIL 2               
1 43700U 18090A   26147.94160223  .00000152  00000+0  00000+0 0  9995
2 43700   0.0141 289.9279 0001873 168.2664 152.0840  1.00274454 27477
FOX-1CLIFF (AO-95)      
1 43770U 18099N   26147.69092025  .00013644  00000+0  52913-3 0  9991
2 43770  97.4401 208.0187 0010017  67.2029 293.0266 15.26198399410094
ITASAT                  
1 43786U 18099AE  26147.92880920  .00008261  00000+0  39967-3 0  9996
2 43786  97.4045 199.8472 0014076  67.8086 292.4641 15.18754711409834
JY1SAT (JO-97)          
1 43803U 18099AX  26147.73445052  .00019686  00000+0  62080-3 0  9993
2 43803  97.4144 210.5072 0004871 359.9431   0.1810 15.32904545410496
UWE-4                   
1 43880U 18111E   26147.75479861  .00037489  00000+0  80158-3 0  9997
2 43880  97.5857  75.2249 0009442  51.7759 308.4338 15.44686892407629
TIANYAN 01              
1 44881U 19093C   26147.98533905  .00000522  00000+0  65029-4 0  9993
2 44881  97.7537 220.7098 0014226 147.8191 212.3896 14.86479445348412
RS-44 & BREEZE-KM R/B   
1 44909U 19096E   26147.91249955  .00000035  00000+0  94244-4 0  9999
2 44909  82.5225 353.1805 0217245 191.5189 168.0898 12.79748482299756
SALSAT                  
1 46495U 20068K   26147.93188408  .00009457  00000+0  33346-3 0  9991
2 46495  97.8850 149.7689 0010248  24.2273 335.9446 15.29457813312269
XW-3 (CAS-9)            
1 50466U 21131B   26147.92290413  .00000412  00000+0  14100-3 0  9994
2 50466  98.4968 240.4235 0004778 145.3996 214.7504 14.41334557232197
GREENCUBE (IO-117)      
1 53109U 22080E   26147.79592803 -.00000003  00000+0  00000+0 0  9995
2 53109  70.1434 305.3386 0008871 294.4684  65.5050  6.42583270 90757
UMKA 1 (RS40S)          
1 57172U 23091G   26147.95865169  .00007521  00000+0  34607-3 0  9993
2 57172  97.5067 206.7362 0012835 182.9213 177.1949 15.20546803160930
CUBESX-HSE 3 (RS42S)    
1 57178U 23091N   26147.91182736  .00016608  00000+0  56196-3 0  9990
2 57178  97.5108 213.2504 0011724 157.7275 202.4477 15.30620127161322
MONITOR-3 (RS58S)       
1 57180U 23091Q   26147.95782158  .00012802  00000+0  47916-3 0  9993
2 57180  97.5100 211.2610 0012446 164.2682 195.8946 15.27367913161200
MONITOR-4 (RS57S)       
1 57182U 23091S   26147.93811049  .00013438  00000+0  50131-3 0  9994
2 57182  97.5093 211.2112 0012387 164.7664 195.3951 15.27465261161205
MONITOR-2 (RS39S)       
1 57184U 23091U   26147.95484137  .00005942  00000+0  28933-3 0  9998
2 57184  97.5089 206.3703 0011468 174.9998 185.1353 15.18690545160886
SVYATOBOR 1 (RS60S)     
1 57187U 23091X   26147.93415836  .00011632  00000+0  45144-3 0  9995
2 57187  97.5104 211.6438 0010326 156.0960 204.0760 15.26211999161226
VIZARD-METEO (RS38S)    
1 57189U 23091Z   26147.94811724  .00020865  00000+0  60978-3 0  9994
2 57189  97.5106 217.0375 0008707 137.6970 222.4946 15.35281368161582
POLYTECH-UNIVERSE 3 (R*)
1 57191U 23091AB  26147.91881751  .00006195  00000+0  29942-3 0  9997
2 57191  97.5063 205.8393 0015266 194.0639 166.0172 15.18886777160870
UTMN 2 (RS27S)          
1 57203U 23091AP  26147.94060816  .00016469  00000+0  54312-3 0  9999
2 57203  97.5102 214.8884 0009284 144.0759 216.1108 15.31476900161442
KUZGTU 1 (RS47S)        
1 57217U 23091AV  26147.95074218  .00014855  00000+0  52350-3 0  9993
2 57217  97.5080 212.2314 0011804 161.0146 199.1536 15.29320145161285
SONATE-2                
1 59112U 24043Q   26147.90590238  .00040886  00000+0  56434-3 0  9997
2 59112  97.5508 297.0857 0005991 268.8337  91.2231 15.57062134124732
MESAT1                  
1 60209U 24125G   26147.54267653  .00054580  00000+0  65270-3 0  9993
2 60209  97.2327   4.5870 0008076 291.6375  68.4022 15.60794619106341
OOV-CUBE (TUBSAT-30)    
1 60240U 24128F   26147.82695054  .00003399  00000+0  26331-3 0  9999
2 60240  61.9956 296.5623 0047228 129.3238 231.2054 15.02656968103058
COLIBRI-S (RS67S)       
1 61746U 24199M   26147.94885211  .00026745  00000+0  53411-3 0  9997
2 61746  97.3028  21.6297 0008177   8.3472 351.7913 15.46766919134280
HORS 3 (RS81S)          
1 61753U 24199U   26147.93775054  .00043512  00000+0  68586-3 0  9997
2 61753  97.3013  23.3954 0006314  18.9040 341.2447 15.53411999134414
HORS 4 (RS82S)          
1 61754U 24199V   26147.89198869  .00056100  00000+0  75722-3 0  9993
2 61754  97.2965  24.4265 0005109  14.5973 345.5429 15.57599780134488
ARCTICSAT 1 (RS74S)     
1 61762U 24199AD  26147.89806986  .00442892  78219-4  13012-2 0  9990
2 61762  97.2864  30.4643 0002762 168.2326 191.9014 15.92686282134872
SIT-2086                
1 61764U 24199AF  26147.89135584  .00042869  00000+0  72309-3 0  9994
2 61764  97.2980  23.8939 0006084 355.5712   4.5486 15.51524031131280
HYPERVIEW 1G (RS66S)    
1 61772U 24199AP  26147.89918123  .00131374  00000+0  10569-2 0  9990
2 61772  97.2926  26.6705 0003974  14.0441 346.0931 15.70533223131487
ALTAIR (RS65S)          
1 61779U 24199AW  26147.92734528  .00009755  00000+0  27445-3 0  9995
2 61779  97.3062  17.4159 0013473  27.2425 332.9524 15.36597894134009
ASRTU-1 (AO-123)        
1 61781U 24199AY  26147.89815407  .00009515  00000+0  27860-3 0  9995
2 61781  97.3033  16.7540 0014615  28.8349 331.3700 15.35336288130818
SAMSAT-IONOSPHERE (RS7*)
1 61784U 24199BB  26147.93950107  .00052901  00000+0  76664-3 0  9993
2 61784  97.2985  23.3763 0008222  12.5066 347.6391 15.55665230134410
RTU MIREA 1 (RS51S)     
1 61785U 24199BC  26147.94184013  .00068001  00000+0  87941-3 0  9998
2 61785  97.2975  24.1128 0007708   9.6285 350.5117 15.58677193131311
TEVEL2-4                
1 63213U 25052D   26147.70265834  .00021901  00000+0  67150-3 0  9998
2 63213  97.3935  44.0697 0003424 141.9601 218.1884 15.33784944 66976
TEVEL2-5                
1 63214U 25052E   26147.65568466  .00021838  00000+0  67303-3 0  9999
2 63214  97.3933  43.9764 0003353 142.3005 217.8473 15.33620752 66967
TEVEL2-6                
1 63215U 25052F   26147.66752051  .00021842  00000+0  67393-3 0  9990
2 63215  97.3933  43.9727 0003447 141.6466 218.5022 15.33583038 66967
